GLOBALSTAR M063         
1 26081U 00008A   25191.01515495 -.00000114  00000+0 -45445-3 0  9995
2 26081  51.9970  51.4516 0004869  10.3882 138.2542 11.86173945160288
GLOBALSTAR M062         
1 26082U 00008B   25191.50769306 -.00000181  00000+0 -59456-3 0  9993
2 26082  51.9867  27.2041 0007412 154.9702 239.9019 12.43469902499526
GLOBALSTAR M060         
1 26083U 00008C   25191.62641343 -.00000167  00000+0 -76041-3 0  9990
2 26083  52.0045 350.1785 0003584 159.2453 281.0812 12.17665712155220
GLOBALSTAR M064         
1 26084U 00008D   25191.60727378 -.00000100  00000+0 -23402-3 0  9992
2 26084  52.0017 148.4429 0001368  86.3039 273.7950 11.88534527169885
GLOBALSTAR M065         
1 31571U 07020A   25191.61401067 -.00000111  00000+0 -39406-4 0  9999
2 31571  51.9874 154.9631 0010334   1.3643 170.2246 12.62010195836365
GLOBALSTAR M069         
1 31573U 07020C   25191.64092537 -.00000111  00000+0 -17076-3 0  9990
2 31573  51.9937 138.8411 0000756 201.2881 329.9002 12.23447050836999
GLOBALSTAR M072         
1 31574U 07020D   25191.56822229 -.00000060  00000+0  33552-3 0  9990
2 31574  51.9942 289.7262 0000884  45.0966 328.6777 11.91650150834259
GLOBALSTAR M071         
1 31576U 07020F   25191.25480140 -.00000111  00000+0 -19176-3 0  9994
2 31576  52.0037 166.1889 0000540 152.6502 221.0487 12.18255718836663
